start=new Date('2022-07-01T00:00:00.000Z').valueOf();
sats=[{"ECCENTRICITY":"0.00018070","REF_FRAME":"TEME","FILE":"3505946","CENTER_NAME":"EARTH","MEAN_ANOMALY":"298.8593","REV_AT_EPOCH":"7384","ARG_OF_PERICENTER":"61.2578","CLASSIFICATION_TYPE":"U","LAUNCH_DATE":"2021-03-11","RA_OF_ASC_NODE":"153.2796","MEAN_MOTION":"15.06387910","TLE_LINE2":"2 47839  53.0535 153.2796 0001807  61.2578 298.8593 15.06387910 73848","MEAN_MOTION_DDOT":"0.0000000000000","NORAD_CAT_ID":"47839","RCS_SIZE":"LARGE","SITE":"AFETR","SEMIMAJOR_AXIS":"6925.386","OBJECT_TYPE":"PAYLOAD","ELEMENT_SET_NO":"999","INCLINATION":"53.0535","EPOCH":"2022-06-30T15:07:33.849696","DECAY_DATE":null,"TLE_LINE1":"1 47839U 21018BE  22181.63025289 -.00000883  00000-0 -40418-4 0  9994","PERIOD":"95.593","APOAPSIS":"548.502","OBJECT_ID":"2021-018BE","COUNTRY_CODE":"US","MEAN_ELEMENT_THEORY":"SGP4","BSTAR":"-0.00004041800000","GP_ID":"207177057","EPHEMERIS_TYPE":"0","TIME_SYSTEM":"UTC","OBJECT_NAME":"STARLINK-2431","PERIAPSIS":"545.999","MEAN_MOTION_DOT":"-0.00000883"},{"NORAD_CAT_ID":"47840","SITE":"AFETR","RCS_SIZE":"LARGE","SEMIMAJOR_AXIS":"6925.345","OBJECT_TYPE":"PAYLOAD","MEAN_MOTION_DDOT":"0.0000000000000","ARG_OF_PERICENTER":"61.1352","REV_AT_EPOCH":"7369","CLASSIFICATION_TYPE":"U","LAUNCH_DATE":"2021-03-11","MEAN_MOTION":"15.06401310","TLE_LINE2":"2 47840  53.0554 163.2595 0001977  61.1352 298.9836 15.06401310 73691","RA_OF_ASC_NODE":"163.2595","ECCENTRICITY":"0.00019770","FILE":"3505946","REF_FRAME":"TEME","MEAN_ANOMALY":"298.9836","CENTER_NAME":"EARTH","MEAN_MOTION_DOT":"0.00000652","COUNTRY_CODE":"US","BSTAR":"0.00006270500000","MEAN_ELEMENT_THEORY":"SGP4","TIME_SYSTEM":"UTC","EPHEMERIS_TYPE":"0","OBJECT_NAME":"STARLINK-2432","GP_ID":"207176806","PERIAPSIS":"545.840","TLE_LINE1":"1 47840U 21018BF  22181.64038451  .00000652  00000-0  62705-4 0  9997","DECAY_DATE":null,"OBJECT_ID":"2021-018BF","APOAPSIS":"548.579","PERIOD":"95.592","ELEMENT_SET_NO":"999","INCLINATION":"53.0554","EPOCH":"2022-06-30T15:22:09.221664"},{"COUNTRY_CODE":"US","MEAN_ELEMENT_THEORY":"SGP4","BSTAR":"0.00006322200000","GP_ID":"207147776","TIME_SYSTEM":"UTC","EPHEMERIS_TYPE":"0","OBJECT_NAME":"STARLINK-2433","PERIAPSIS":"546.141","MEAN_MOTION_DOT":"0.00000660","ELEMENT_SET_NO":"999","INCLINATION":"53.0553","EPOCH":"2022-06-30T10:30:13.644288","DECAY_DATE":null,"TLE_LINE1":"1 47841U 21018BG  22181.43765792  .00000660  00000-0  63222-4 0  9994","PERIOD":"95.592","APOAPSIS":"548.308","OBJECT_ID":"2021-018BG","MEAN_MOTION_DDOT":"0.0000000000000","NORAD_CAT_ID":"47841","SITE":"AFETR","RCS_SIZE":"LARGE","SEMIMAJOR_AXIS":"6925.360","OBJECT_TYPE":"PAYLOAD","ECCENTRICITY":"0.00015650","REF_FRAME":"TEME","FILE":"3505769","CENTER_NAME":"EARTH","MEAN_ANOMALY":"287.9339","REV_AT_EPOCH":"7366","ARG_OF_PERICENTER":"72.1820","LAUNCH_DATE":"2021-03-11","CLASSIFICATION_TYPE":"U","RA_OF_ASC_NODE":"164.1661","MEAN_MOTION":"15.06396425","TLE_LINE2":"2 47841  53.0553 164.1661 0001565  72.1820 287.9339 15.06396425 73663"},{"INCLINATION":"53.0537","EPOCH":"2022-06-30T18:08:02.567328","ELEMENT_SET_NO":"999","TLE_LINE1":"1 47842U 21018BH  22181.75558527  .00000264  00000-0  36639-4 0  9998","DECAY_DATE":null,"OBJECT_ID":"2021-018BH","APOAPSIS":"548.530","PERIOD":"95.593","EPHEMERIS_TYPE":"0","OBJECT_NAME":"STARLINK-2434","TIME_SYSTEM":"UTC","GP_ID":"207175807","PERIAPSIS":"546.012","COUNTRY_CODE":"US","BSTAR":"0.00003663900000","MEAN_ELEMENT_THEORY":"SGP4","MEAN_MOTION_DOT":"0.00000264","FILE":"3505946","REF_FRAME":"TEME","MEAN_ANOMALY":"306.2332","CENTER_NAME":"EARTH","ECCENTRICITY":"0.00018180","LAUNCH_DATE":"2021-03-11","CLASSIFICATION_TYPE":"U","MEAN_MOTION":"15.06381192","TLE_LINE2":"2 47842  53.0537 192.7327 0001818  53.8825 306.2332 15.06381192 73342","RA_OF_ASC_NODE":"192.7327","ARG_OF_PERICENTER":"53.8825","REV_AT_EPOCH":"7334","MEAN_MOTION_DDOT":"0.0000000000000","SEMIMAJOR_AXIS":"6925.406","OBJECT_TYPE":"PAYLOAD","NORAD_CAT_ID":"47842","RCS_SIZE":"LARGE","SITE":"AFETR"},{"ECCENTRICITY":"0.00019670","REF_FRAME":"TEME","FILE":"3505946","MEAN_ANOMALY":"306.6501","CENTER_NAME":"EARTH","REV_AT_EPOCH":"7337","ARG_OF_PERICENTER":"53.4669","LAUNCH_DATE":"2021-03-11","CLASSIFICATION_TYPE":"U","RA_OF_ASC_NODE":"187.8631","TLE_LINE2":"2 47843  53.0536 187.8631 0001967  53.4669 306.6501 15.06399240 73370","MEAN_MOTION":"15.06399240","MEAN_MOTION_DDOT":"0.0000000000000","NORAD_CAT_ID":"47843","RCS_SIZE":"LARGE","SITE":"AFETR","SEMIMAJOR_AXIS":"6925.351","OBJECT_TYPE":"PAYLOAD","ELEMENT_SET_NO":"999","INCLINATION":"53.0536","EPOCH":"2022-06-30T17:28:51.920544","DECAY_DATE":null,"TLE_LINE1":"1 47843U 21018BJ  22181.72837871  .00000464  00000-0  50071-4 0  9996","PERIOD":"95.592","APOAPSIS":"548.578","OBJECT_ID":"2021-018BJ","COUNTRY_CODE":"US","MEAN_ELEMENT_THEORY":"SGP4","BSTAR":"0.00005007100000","GP_ID":"207176558","OBJECT_NAME":"STARLINK-2435","EPHEMERIS_TYPE":"0","TIME_SYSTEM":"UTC","PERIAPSIS":"545.854","MEAN_MOTION_DOT":"0.00000464"},{"MEAN_ELEMENT_THEORY":"SGP4","BSTAR":"-0.00005764600000","COUNTRY_CODE":"US","PERIAPSIS":"546.104","GP_ID":"207177306","OBJECT_NAME":"STARLINK-2446","EPHEMERIS_TYPE":"0","TIME_SYSTEM":"UTC","MEAN_MOTION_DOT":"-0.00001140","ELEMENT_SET_NO":"999","EPOCH":"2022-06-30T17:26:53.777184","INCLINATION":"53.0537","PERIOD":"95.593","OBJECT_ID":"2021-018BK","APOAPSIS":"548.397","DECAY_DATE":null,"TLE_LINE1":"1 47844U 21018BK  22181.72701131 -.00001140  00000-0 -57646-4 0  9995","MEAN_MOTION_DDOT":"0.0000000000000","SITE":"AFETR","RCS_SIZE":"LARGE","NORAD_CAT_ID":"47844","OBJECT_TYPE":"PAYLOAD","SEMIMAJOR_AXIS":"6925.386","ECCENTRICITY":"0.00016560","CENTER_NAME":"EARTH","MEAN_ANOMALY":"300.6035","REF_FRAME":"TEME","FILE":"3505946","REV_AT_EPOCH":"7342","ARG_OF_PERICENTER":"59.5117","RA_OF_ASC_NODE":"182.8689","TLE_LINE2":"2 47844  53.0537 182.8689 0001656  59.5117 300.6035 15.06387920 73424","MEAN_MOTION":"15.06387920","LAUNCH_DATE":"2021-03-11","CLASSIFICATION_TYPE":"U"},{"MEAN_MOTION_DOT":"-0.00001256","PERIAPSIS":"545.888","OBJECT_NAME":"STARLINK-2453","EPHEMERIS_TYPE":"0","TIME_SYSTEM":"UTC","GP_ID":"207176057","BSTAR":"-0.00006543700000","MEAN_ELEMENT_THEORY":"SGP4","COUNTRY_CODE":"US","APOAPSIS":"548.581","OBJECT_ID":"2021-018BL","PERIOD":"95.593","TLE_LINE1":"1 47845U 21018BL  22181.81178461 -.00001256  00000-0 -65437-4 0  9995","DECAY_DATE":null,"EPOCH":"2022-06-30T19:28:58.190304","INCLINATION":"53.0528","ELEMENT_SET_NO":"999","OBJECT_TYPE":"PAYLOAD","SEMIMAJOR_AXIS":"6925.370","RCS_SIZE":"LARGE","SITE":"AFETR","NORAD_CAT_ID":"47845","MEAN_MOTION_DDOT":"0.0000000000000","MEAN_MOTION":"15.06393084","TLE_LINE2":"2 47845  53.0528 182.4859 0001944  56.8165 303.3010 15.06393084 73446","RA_OF_ASC_NODE":"182.4859","LAUNCH_DATE":"2021-03-11","CLASSIFICATION_TYPE":"U","ARG_OF_PERICENTER":"56.8165","REV_AT_EPOCH":"7344","MEAN_ANOMALY":"303.3010","CENTER_NAME":"EARTH","FILE":"3505946","REF_FRAME":"TEME","ECCENTRICITY":"0.00019440"},{"MEAN_MOTION_DOT":"0.00000361","BSTAR":"0.00004315300000","MEAN_ELEMENT_THEORY":"SGP4","COUNTRY_CODE":"US","PERIAPSIS":"546.098","OBJECT_NAME":"STARLINK-2456","EPHEMERIS_TYPE":"0","TIME_SYSTEM":"UTC","GP_ID":"207176306","OBJECT_ID":"2021-018BM","APOAPSIS":"548.405","PERIOD":"95.593","TLE_LINE1":"1 47846U 21018BM  22181.87351544  .00000361  00000-0  43153-4 0  9992","DECAY_DATE":null,"ELEMENT_SET_NO":"999","EPOCH":"2022-06-30T20:57:51.734016","INCLINATION":"53.0546","SITE":"AFETR","RCS_SIZE":"LARGE","NORAD_CAT_ID":"47846","OBJECT_TYPE":"PAYLOAD","SEMIMAJOR_AXIS":"6925.386","MEAN_MOTION_DDOT":"0.0000000000000","ARG_OF_PERICENTER":"61.4748","REV_AT_EPOCH":"7350","TLE_LINE2":"2 47846  53.0546 182.1946 0001665  61.4748 298.6408 15.06387629 73502","MEAN_MOTION":"15.06387629","RA_OF_ASC_NODE":"182.1946","CLASSIFICATION_TYPE":"U","LAUNCH_DATE":"2021-03-11","ECCENTRICITY":"0.00016650","MEAN_ANOMALY":"298.6408","CENTER_NAME":"EARTH","FILE":"3505946","REF_FRAME":"TEME"},{"MEAN_MOTION_DOT":"-0.00000736","GP_ID":"207176808","OBJECT_NAME":"STARLINK-2258","EPHEMERIS_TYPE":"0","TIME_SYSTEM":"UTC","PERIAPSIS":"546.307","COUNTRY_CODE":"US","MEAN_ELEMENT_THEORY":"SGP4","BSTAR":"-0.00003053000000","DECAY_DATE":null,"TLE_LINE1":"1 47860U 21021A   22181.81271262 -.00000736  00000-0 -30530-4 0  9997","PERIOD":"95.593","APOAPSIS":"548.186","OBJECT_ID":"2021-021A","INCLINATION":"53.0529","EPOCH":"2022-06-30T19:30:18.370368","ELEMENT_SET_NO":"999","SEMIMAJOR_AXIS":"6925.381","OBJECT_TYPE":"PAYLOAD","NORAD_CAT_ID":"47860","SITE":"AFETR","RCS_SIZE":"LARGE","MEAN_MOTION_DDOT":"0.0000000000000","CLASSIFICATION_TYPE":"U","LAUNCH_DATE":"2021-03-14","RA_OF_ASC_NODE":"212.4732","TLE_LINE2":"2 47860  53.0529 212.4732 0001356  75.5352 284.5788 15.06389252 72792","MEAN_MOTION":"15.06389252","REV_AT_EPOCH":"7279","ARG_OF_PERICENTER":"75.5352","REF_FRAME":"TEME","FILE":"3505946","CENTER_NAME":"EARTH","MEAN_ANOMALY":"284.5788","ECCENTRICITY":"0.00013560"},{"MEAN_MOTION_DDOT":"0.0000000000000","NORAD_CAT_ID":"47861","RCS_SIZE":"LARGE","SITE":"AFETR","SEMIMAJOR_AXIS":"6925.403","OBJECT_TYPE":"PAYLOAD","ECCENTRICITY":"0.00015150","REF_FRAME":"TEME","FILE":"3505946","CENTER_NAME":"EARTH","MEAN_ANOMALY":"300.8085","REV_AT_EPOCH":"7310","ARG_OF_PERICENTER":"59.3053","CLASSIFICATION_TYPE":"U","LAUNCH_DATE":"2021-03-14","RA_OF_ASC_NODE":"197.6894","TLE_LINE2":"2 47861  53.0526 197.6894 0001515  59.3053 300.8085 15.06382306 73109","MEAN_MOTION":"15.06382306","COUNTRY_CODE":"US","MEAN_ELEMENT_THEORY":"SGP4","BSTAR":"-0.00006155000000","GP_ID":"207175559","EPHEMERIS_TYPE":"0","OBJECT_NAME":"STARLINK-2280","TIME_SYSTEM":"UTC","PERIAPSIS":"546.219","MEAN_MOTION_DOT":"-0.00001198","ELEMENT_SET_NO":"999","INCLINATION":"53.0526","EPOCH":"2022-06-30T18:20:38.919840","DECAY_DATE":null,"TLE_LINE1":"1 47861U 21021B   22181.76433935 -.00001198  00000-0 -61550-4 0  9998","PERIOD":"95.593","APOAPSIS":"548.317","OBJECT_ID":"2021-021B"}];
